{"type": "FeatureCollection", "features": [ {"type": "Feature", "properties": {"norad_id": 33905, "name": "COSMOS 2251 DEB", "group": "cosmos-2251-debris", "lat": 36.0582130585377, "lon": 98.83387771665987, "alt_km": 736.8138523254656, "timestamp": "2025-12-26T14:28:48.095994+00:00", "meta": {"OBJECT_NAME": "COSMOS 2251 DEB", "OBJECT_ID": "1993-036DJ", "EPOCH": "2025-12-25T21:21:48.164256", "MEAN_MOTION": 14.35428413, "ECCENTRICITY": 0.0058089, "INCLINATION": 73.8868, "RA_OF_ASC_NODE": 292.3034, "ARG_OF_PERICENTER": 178.9773, "MEAN_ANOMALY": 239.5395, "EPHEMERIS_TYPE": 0, "CLASSIFICATION_TYPE": "U", "NORAD_CAT_ID": 33905, "ELEMENT_SET_NO": 999, "REV_AT_EPOCH": 87876, "BSTAR": 0.00053799, "MEAN_MOTION_DOT": 1.548e-05, "MEAN_MOTION_DDOT": 0}, "tle": {"line1": "1 33905U 93036DJ  25359.89014079  .00001548  00000+0  53799-3 0  9996", "line2": "2 33905  73.8868 292.3034 0058089 178.9773 239.5395 14.35428413878764"}}, "geometry": {"type": "Point", "coordinates": [98.83387771665987, 36.0582130585377]}}, {"type": "Feature", "properties": {"norad_id": 33906, "name": "COSMOS 2251 DEB", "group": "cosmos-2251-debris", "lat": 32.590789227129484, "lon": -54.324678424081895, "alt_km": 691.1922562276432, "timestamp": "2025-12-26T14:28:48.096004+00:00", "meta": {"OBJECT_NAME": "COSMOS 2251 DEB", "OBJECT_ID": "1993-036DK", "EPOCH": "2025-12-25T22:07:37.012224", "MEAN_MOTION": 14.57306917, "ECCENTRICITY": 0.0036915, "INCLINATION": 74.0302, "RA_OF_ASC_NODE": 296.4211, "ARG_OF_PERICENTER": 324.0836, "MEAN_ANOMALY": 96.415, "EPHEMERIS_TYPE": 0, "CLASSIFICATION_TYPE": "U", "NORAD_CAT_ID": 33906, "ELEMENT_SET_NO": 999, "REV_AT_EPOCH": 88200, "BSTAR": 0.0018801, "MEAN_MOTION_DOT": 8.57e-05, "MEAN_MOTION_DDOT": 0}, "tle": {"line1": "1 33906U 93036DK  25359.92195616  .00008570  00000+0  18801-2 0  9994", "line2": "2 33906  74.0302 296.4211 0036915 324.0836  96.4150 14.57306917882000"}}, "geometry": {"type": "Point", "coordinates": [-54.324678424081895, 32.590789227129484]}}, {"type": "Feature", "properties": {"norad_id": 33907, "name": "COSMOS 2251 DEB", "group": "cosmos-2251-debris", "lat": 56.975762119959754, "lon": 162.4056792437417, "alt_km": 742.331103679232, "timestamp": "2025-12-26T14:28:48.096014+00:00", "meta": {"OBJECT_NAME": "COSMOS 2251 DEB", "OBJECT_ID": "1993-036DL", "EPOCH": "2025-12-26T02:26:51.759744", "MEAN_MOTION": 14.3063031, "ECCENTRICITY": 0.01119506, "INCLINATION": 74.0705, "RA_OF_ASC_NODE": 9.38, "ARG_OF_PERICENTER": 60.8464, "MEAN_ANOMALY": 356.2762, "EPHEMERIS_TYPE": 0, "CLASSIFICATION_TYPE": "U", "NORAD_CAT_ID": 33907, "ELEMENT_SET_NO": 999, "REV_AT_EPOCH": 86771, "BSTAR": 0.0019061125, "MEAN_MOTION_DOT": 5.31e-05, "MEAN_MOTION_DDOT": 0}, "tle": {"line1": "1 33907U 93036DL  25360.10198796  .00005310  00000+0  19061-2 0  9997", "line2": "2 33907  74.0705   9.3800 0111950  60.8464 356.2762 14.30630310867713"}}, "geometry": {"type": "Point", "coordinates": [162.4056792437417, 56.975762119959754]}}, {"type": "Feature", "properties": {"norad_id": 33908, "name": "COSMOS 2251 DEB", "group": "cosmos-2251-debris", "lat": 65.21465579468259, "lon": -139.92816992840122, "alt_km": 965.2565069295533, "timestamp": "2025-12-26T14:28:48.096025+00:00", "meta": {"OBJECT_NAME": "COSMOS 2251 DEB", "OBJECT_ID": "1993-036DM", "EPOCH": "2025-12-25T14:14:52.263744", "MEAN_MOTION": 14.07447206, "ECCENTRICITY": 0.0222244, "INCLINATION": 73.8371, "RA_OF_ASC_NODE": 182.9563, "ARG_OF_PERICENTER": 204.1101, "MEAN_ANOMALY": 154.9509, "EPHEMERIS_TYPE": 0, "CLASSIFICATION_TYPE": "U", "NORAD_CAT_ID": 33908, "ELEMENT_SET_NO": 999, "REV_AT_EPOCH": 85654, "BSTAR": 0.0026861, "MEAN_MOTION_DOT": 5.642e-05, "MEAN_MOTION_DDOT": 0}, "tle": {"line1": "1 33908U 93036DM  25359.59366046  .00005642  00000+0  26861-2 0  9998", "line2": "2 33908  73.8371 182.9563 0222244 204.1101 154.9509 14.07447206856549"}}, "geometry": {"type": "Point", "coordinates": [-139.92816992840122, 65.21465579468259]}}, {"type": "Feature", "properties": {"norad_id": 33911, "name": "COSMOS 2251 DEB", "group": "cosmos-2251-debris", "lat": -25.60484382466839, "lon": 126.99500631635526, "alt_km": 650.159348979786, "timestamp": "2025-12-26T14:28:48.096035+00:00", "meta": {"OBJECT_NAME": "COSMOS 2251 DEB", "OBJECT_ID": "1993-036DQ", "EPOCH": "2025-12-26T03:27:21.077280", "MEAN_MOTION": 14.75198476, "ECCENTRICITY": 0.00140597, "INCLINATION": 74.0905, "RA_OF_ASC_NODE": 135.7458, "ARG_OF_PERICENTER": 66.6606, "MEAN_ANOMALY": 348.4887, "EPHEMERIS_TYPE": 0, "CLASSIFICATION_TYPE": "U", "NORAD_CAT_ID": 33911, "ELEMENT_SET_NO": 999, "REV_AT_EPOCH": 88842, "BSTAR": 0.0021579624, "MEAN_MOTION_DOT": 0.00014608, "MEAN_MOTION_DDOT": 0}, "tle": {"line1": "1 33911U 93036DQ  25360.14399395  .00014608  00000+0  21580-2 0  9993", "line2": "2 33911  74.0905 135.7458 0014059  66.6606 348.4887 14.75198476888420"}}, "geometry": {"type": "Point", "coordinates": [126.99500631635526, -25.60484382466839]}}, {"type": "Feature", "properties": {"norad_id": 33912, "name": "COSMOS 2251 DEB", "group": "cosmos-2251-debris", "lat": 29.564992097530773, "lon": -25.73840124527131, "alt_km": 717.8917108406104, "timestamp": "2025-12-26T14:28:48.096046+00:00", "meta": {"OBJECT_NAME": "COSMOS 2251 DEB", "OBJECT_ID": "1993-036DR", "EPOCH": "2025-12-25T11:28:32.599776", "MEAN_MOTION": 14.51967051, "ECCENTRICITY": 0.0011296, "INCLINATION": 74.033, "RA_OF_ASC_NODE": 165.7278, "ARG_OF_PERICENTER": 245.0608, "MEAN_ANOMALY": 145.0748, "EPHEMERIS_TYPE": 0, "CLASSIFICATION_TYPE": "U", "NORAD_CAT_ID": 33912, "ELEMENT_SET_NO": 999, "REV_AT_EPOCH": 88618, "BSTAR": 0.00082992, "MEAN_MOTION_DOT": 3.327e-05, "MEAN_MOTION_DDOT": 0}, "tle": {"line1": "1 33912U 93036DR  25359.47815509  .00003327  00000+0  82992-3 0  9999", "line2": "2 33912  74.0330 165.7278 0011296 245.0608 145.0748 14.51967051886186"}}, "geometry": {"type": "Point", "coordinates": [-25.73840124527131, 29.564992097530773]}}, {"type": "Feature", "properties": {"norad_id": 33913, "name": "COSMOS 2251 DEB", "group": "cosmos-2251-debris", "lat": 60.126783206617716, "lon": -172.4329015806442, "alt_km": 757.5649890992308, "timestamp": "2025-12-26T14:28:48.096056+00:00", "meta": {"OBJECT_NAME": "COSMOS 2251 DEB", "OBJECT_ID": "1993-036DS", "EPOCH": "2025-12-25T20:30:08.870112", "MEAN_MOTION": 14.48539545, "ECCENTRICITY": 0.0048173, "INCLINATION": 74.0332, "RA_OF_ASC_NODE": 159.0733, "ARG_OF_PERICENTER": 259.2078, "MEAN_ANOMALY": 220.5321, "EPHEMERIS_TYPE": 0, "CLASSIFICATION_TYPE": "U", "NORAD_CAT_ID": 33913, "ELEMENT_SET_NO": 999, "REV_AT_EPOCH": 88647, "BSTAR": 0.00064836417, "MEAN_MOTION_DOT": 2.443e-05, "MEAN_MOTION_DDOT": 0}, "tle": {"line1": "1 33913U 93036DS  25359.85426933  .00002443  00000+0  64836-3 0  9996", "line2": "2 33913  74.0332 159.0733 0048173 259.2078 220.5321 14.48539545886470"}}, "geometry": {"type": "Point", "coordinates": [-172.4329015806442, 60.126783206617716]}}, {"type": "Feature", "properties": {"norad_id": 33914, "name": "COSMOS 2251 DEB", "group": "cosmos-2251-debris", "lat": 1.6097806204931149, "lon": 171.78813811604422, "alt_km": 973.7409022383581, "timestamp": "2025-12-26T14:28:48.096067+00:00", "meta": {"OBJECT_NAME": "COSMOS 2251 DEB", "OBJECT_ID": "1993-036DT", "EPOCH": "2025-12-26T03:29:35.982240", "MEAN_MOTION": 13.71992842, "ECCENTRICITY": 0.03007747, "INCLINATION": 74.0912, "RA_OF_ASC_NODE": 353.0015, "ARG_OF_PERICENTER": 92.7934, "MEAN_ANOMALY": 341.7967, "EPHEMERIS_TYPE": 0, "CLASSIFICATION_TYPE": "U", "NORAD_CAT_ID": 33914, "ELEMENT_SET_NO": 999, "REV_AT_EPOCH": 84265, "BSTAR": 0.00027030331, "MEAN_MOTION_DOT": 3.19e-06, "MEAN_MOTION_DDOT": 0}, "tle": {"line1": "1 33914U 93036DT  25360.14555535  .00000319  00000+0  27030-3 0  9997", "line2": "2 33914  74.0912 353.0015 0300774  92.7934 341.7967 13.71992842842655"}}, "geometry": {"type": "Point", "coordinates": [171.78813811604422, 1.6097806204931149]}}, {"type": "Feature", "properties": {"norad_id": 33915, "name": "COSMOS 2251 DEB", "group": "cosmos-2251-debris", "lat": -23.50597753709299, "lon": -164.15256898336156, "alt_km": 800.6938937917048, "timestamp": "2025-12-26T14:28:48.096077+00:00", "meta": {"OBJECT_NAME": "COSMOS 2251 DEB", "OBJECT_ID": "1993-036DU", "EPOCH": "2025-12-26T02:05:41.135424", "MEAN_MOTION": 14.35111094, "ECCENTRICITY": 0.01039884, "INCLINATION": 74.0429, "RA_OF_ASC_NODE": 9.6442, "ARG_OF_PERICENTER": 98.5899, "MEAN_ANOMALY": 319.6041, "EPHEMERIS_TYPE": 0, "CLASSIFICATION_TYPE": "U", "NORAD_CAT_ID": 33915, "ELEMENT_SET_NO": 999, "REV_AT_EPOCH": 87949, "BSTAR": 0.0003368011, "MEAN_MOTION_DOT": 9.96e-06, "MEAN_MOTION_DDOT": 0}, "tle": {"line1": "1 33915U 93036DU  25360.08728166  .00000996  00000+0  33680-3 0  9992", "line2": "2 33915  74.0429   9.6442 0103988  98.5899 319.6041 14.35111094879491"}}, "geometry": {"type": "Point", "coordinates": [-164.15256898336156, -23.50597753709299]}}, {"type": "Feature", "properties": {"norad_id": 33916, "name": "COSMOS 2251 DEB", "group": "cosmos-2251-debris", "lat": -72.80888292481875, "lon": -49.74404924771208, "alt_km": 1001.6792688293981, "timestamp": "2025-12-26T14:28:48.096088+00:00", "meta": {"OBJECT_NAME": "COSMOS 2251 DEB", "OBJECT_ID": "1993-036DV", "EPOCH": "2025-12-26T07:56:49.587936", "MEAN_MOTION": 13.68627006, "ECCENTRICITY": 0.03247129, "INCLINATION": 74.0518, "RA_OF_ASC_NODE": 18.256, "ARG_OF_PERICENTER": 187.4797, "MEAN_ANOMALY": 184.633, "EPHEMERIS_TYPE": 0, "CLASSIFICATION_TYPE": "U", "NORAD_CAT_ID": 33916, "ELEMENT_SET_NO": 999, "REV_AT_EPOCH": 84077, "BSTAR": 0.00030142191, "MEAN_MOTION_DOT": 3.52e-06, "MEAN_MOTION_DDOT": 0}, "tle": {"line1": "1 33916U 93036DV  25360.33112949  .00000352  00000+0  30142-3 0  9993", "line2": "2 33916  74.0518  18.2560 0324712 187.4797 184.6330 13.68627006840773"}}, "geometry": {"type": "Point", "coordinates": [-49.74404924771208, -72.80888292481875]}}]}